QIANFAN-17              
1 60395U 24140S   26001.28691262  .00000186  00000+0  26937-3 0  9993
2 60395  88.9787 297.4154 0015540 142.7248 217.4985 13.50981457 70777
QIANFAN-18              
1 60396U 24140T   26001.26632825  .00000178  00000+0  25597-3 0  9994
2 60396  88.9780 296.9498 0015367 126.1593 234.0982 13.50981533 70162
QIANFAN-19              
1 61552U 24185A   26001.25352183  .00000825  00000+0  42455-3 0  9994
2 61552  88.9809  75.7089 0005354 227.9692 132.1040 14.14318875 72421
QIANFAN-20              
1 61553U 24185B   26001.29049762  .00000853  00000+0  48606-3 0  9990
2 61553  88.9807  76.0482 0003600 285.3265  74.7521 14.08865838 72241
QIANFAN-21              
1 61554U 24185C   26001.23407214  .00001097  00000+0  48440-3 0  9992
2 61554  88.9723  74.6996 0008558 305.2906  54.7485 14.22638123 72747
QIANFAN-22              
1 61555U 24185D   26001.27795292  .00000304  00000+0  25183-3 0  9992
2 61555  88.9792  77.1092 0004512 304.3375  55.7369 13.86311468 71644
QIANFAN-23              
1 61556U 24185E   26001.27208720  .00000801  00000+0  39701-3 0  9991
2 61556  88.9800  75.5071 0005745 244.1668 115.8928 14.16314282 72516
QIANFAN-24              
1 61557U 24185F   26001.29059820  .00001097  00000+0  47305-3 0  9996
2 61557  88.9781  74.8780 0008012 223.3528 136.7035 14.23839491 72803
